{"type": "FeatureCollection", "features": [{"type": "Feature", "properties": {"norad_id": 26766, "name": "INTELSAT 10 (IS-10)", "group": "intelsat", "lat": -2.4129057678819072, "lon": 44.96716878166488, "alt_km": 36141.84919147163, "timestamp": "2025-12-09T11:33:54.467856+00:00", "meta": {"OBJECT_NAME": "INTELSAT 10 (IS-10)", "OBJECT_ID": "2001-019A", "EPOCH": "2025-12-08T12:50:38.847840", "MEAN_MOTION": 0.99078973, "ECCENTRICITY": 0.0007853, "INCLINATION": 8.6199, "RA_OF_ASC_NODE": 61.1985, "ARG_OF_PERICENTER": 221.9209, "MEAN_ANOMALY": 143.9126, "EPHEMERIS_TYPE": 0, "CLASSIFICATION_TYPE": "U", "NORAD_CAT_ID": 26766, "ELEMENT_SET_NO": 999, "REV_AT_EPOCH": 4369, "BSTAR": 0, "MEAN_MOTION_DOT": -2.74e-06, "MEAN_MOTION_DDOT": 0}, "tle": {"line1": "1 26766U 01019A   25342.53517185 -.00000274  00000+0  00000+0 0  9991", "line2": "2 26766   8.6199  61.1985 0007853 221.9209 143.9126  0.99078973 43690"}}, "geometry": {"type": "Point", "coordinates": [44.96716878166488, -2.4129057678819072]}}, {"type": "Feature", "properties": {"norad_id": 26900, "name": "INTELSAT 902 (IS-902)", "group": "intelsat", "lat": 4.453707786339824, "lon": -158.13767621152837, "alt_km": 35774.49576655448, "timestamp": "2025-12-09T11:33:54.467880+00:00", "meta": {"OBJECT_NAME": "INTELSAT 902 (IS-902)", "OBJECT_ID": "2001-039A", "EPOCH": "2025-12-01T16:59:59.311968", "MEAN_MOTION": 1.00270327, "ECCENTRICITY": 0.00043097, "INCLINATION": 5.6187, "RA_OF_ASC_NODE": 74.2002, "ARG_OF_PERICENTER": 175.119, "MEAN_ANOMALY": 26.3816, "EPHEMERIS_TYPE": 0, "CLASSIFICATION_TYPE": "U", "NORAD_CAT_ID": 26900, "ELEMENT_SET_NO": 999, "REV_AT_EPOCH": 8871, "BSTAR": 0, "MEAN_MOTION_DOT": -2.63e-06, "MEAN_MOTION_DDOT": 0}, "tle": {"line1": "1 26900U 01039A   25335.70832537 -.00000263  00000+0  00000+0 0  9993", "line2": "2 26900   5.6187  74.2002 0004309 175.1190  26.3816  1.00270327 88713"}}, "geometry": {"type": "Point", "coordinates": [-158.13767621152837, 4.453707786339824]}}, {"type": "Feature", "properties": {"norad_id": 27380, "name": "INTELSAT 904 (IS-904)", "group": "intelsat", "lat": 3.3082337391832928, "lon": -139.45090131136533, "alt_km": 35783.53954437833, "timestamp": "2025-12-09T11:33:54.467897+00:00", "meta": {"OBJECT_NAME": "INTELSAT 904 (IS-904)", "OBJECT_ID": "2002-007A", "EPOCH": "2025-12-08T15:09:58.269024", "MEAN_MOTION": 1.00268358, "ECCENTRICITY": 0.0001612, "INCLINATION": 6.4433, "RA_OF_ASC_NODE": 71.4765, "ARG_OF_PERICENTER": 211.5706, "MEAN_ANOMALY": 350.5417, "EPHEMERIS_TYPE": 0, "CLASSIFICATION_TYPE": "U", "NORAD_CAT_ID": 27380, "ELEMENT_SET_NO": 999, "REV_AT_EPOCH": 8717, "BSTAR": 0, "MEAN_MOTION_DOT": -2.26e-06, "MEAN_MOTION_DDOT": 0}, "tle": {"line1": "1 27380U 02007A   25342.63192441 -.00000226  00000+0  00000+0 0  9994", "line2": "2 27380   6.4433  71.4765 0001612 211.5706 350.5417  1.00268358 87175"}}, "geometry": {"type": "Point", "coordinates": [-139.45090131136533, 3.3082337391832928]}}, {"type": "Feature", "properties": {"norad_id": 27426, "name": "DIRECTV 5 (TEMPO 1)", "group": "intelsat", "lat": 3.962849549566042, "lon": 141.73694664137057, "alt_km": 35797.379367413545, "timestamp": "2025-12-09T11:33:54.467912+00:00", "meta": {"OBJECT_NAME": "DIRECTV 5 (TEMPO 1)", "OBJECT_ID": "2002-023A", "EPOCH": "2025-12-09T03:45:20.950272", "MEAN_MOTION": 1.00271976, "ECCENTRICITY": 0.0003911, "INCLINATION": 4.3932, "RA_OF_ASC_NODE": 77.6928, "ARG_OF_PERICENTER": 200.079, "MEAN_ANOMALY": 106.6005, "EPHEMERIS_TYPE": 0, "CLASSIFICATION_TYPE": "U", "NORAD_CAT_ID": 27426, "ELEMENT_SET_NO": 999, "REV_AT_EPOCH": 8621, "BSTAR": 0, "MEAN_MOTION_DOT": -5.6e-07, "MEAN_MOTION_DDOT": 0}, "tle": {"line1": "1 27426U 02023A   25343.15649248 -.00000056  00000+0  00000+0 0  9994", "line2": "2 27426   4.3932  77.6928 0003911 200.0790 106.6005  1.00271976 86213"}}, "geometry": {"type": "Point", "coordinates": [141.73694664137057, 3.962849549566042]}}, {"type": "Feature", "properties": {"norad_id": 27438, "name": "INTELSAT 905 (IS-905)", "group": "intelsat", "lat": 4.265137719513244, "lon": 114.55439374164482, "alt_km": 35795.86233032716, "timestamp": "2025-12-09T11:33:54.467924+00:00", "meta": {"OBJECT_NAME": "INTELSAT 905 (IS-905)", "OBJECT_ID": "2002-027A", "EPOCH": "2025-12-09T04:37:06.727872", "MEAN_MOTION": 1.00271652, "ECCENTRICITY": 0.0002862, "INCLINATION": 6.277, "RA_OF_ASC_NODE": 72.0952, "ARG_OF_PERICENTER": 191.0045, "MEAN_ANOMALY": 107.158, "EPHEMERIS_TYPE": 0, "CLASSIFICATION_TYPE": "U", "NORAD_CAT_ID": 27438, "ELEMENT_SET_NO": 999, "REV_AT_EPOCH": 4945, "BSTAR": 0, "MEAN_MOTION_DOT": 9.5e-07, "MEAN_MOTION_DDOT": 0}, "tle": {"line1": "1 27438U 02027A   25343.19243898  .00000095  00000+0  00000+0 0  9998", "line2": "2 27438   6.2770  72.0952 0002862 191.0045 107.1580  1.00271652 49459"}}, "geometry": {"type": "Point", "coordinates": [114.55439374164482, 4.265137719513244]}}, {"type": "Feature", "properties": {"norad_id": 27445, "name": "GALAXY 3C (G-3C)", "group": "intelsat", "lat": 3.171191556213676, "lon": 157.06100196833503, "alt_km": 35781.55870946867, "timestamp": "2025-12-09T11:33:54.467937+00:00", "meta": {"OBJECT_NAME": "GALAXY 3C (G-3C)", "OBJECT_ID": "2002-030A", "EPOCH": "2025-12-09T04:04:38.821728", "MEAN_MOTION": 1.00270935, "ECCENTRICITY": 0.0001126, "INCLINATION": 3.2554, "RA_OF_ASC_NODE": 80.5402, "ARG_OF_PERICENTER": 99.0957, "MEAN_ANOMALY": 224.8283, "EPHEMERIS_TYPE": 0, "CLASSIFICATION_TYPE": "U", "NORAD_CAT_ID": 27445, "ELEMENT_SET_NO": 999, "REV_AT_EPOCH": 4458, "BSTAR": 0, "MEAN_MOTION_DOT": -1.51e-06, "MEAN_MOTION_DDOT": 0}, "tle": {"line1": "1 27445U 02030A   25343.16989377 -.00000151  00000+0  00000+0 0  9990", "line2": "2 27445   3.2554  80.5402 0001126  99.0957 224.8283  1.00270935 44588"}}, "geometry": {"type": "Point", "coordinates": [157.06100196833503, 3.171191556213676]}}, {"type": "Feature", "properties": {"norad_id": 27513, "name": "INTELSAT 906 (IS-906)", "group": "intelsat", "lat": -4.658662668209981, "lon": -43.962975523695604, "alt_km": 35770.74440754369, "timestamp": "2025-12-09T11:33:54.467949+00:00", "meta": {"OBJECT_NAME": "INTELSAT 906 (IS-906)", "OBJECT_ID": "2002-041A", "EPOCH": "2025-12-08T20:45:27.234720", "MEAN_MOTION": 1.00270855, "ECCENTRICITY": 0.0006097, "INCLINATION": 5.3189, "RA_OF_ASC_NODE": 75.2776, "ARG_OF_PERICENTER": 189.6707, "MEAN_ANOMALY": 188.4156, "EPHEMERIS_TYPE": 0, "CLASSIFICATION_TYPE": "U", "NORAD_CAT_ID": 27513, "ELEMENT_SET_NO": 999, "REV_AT_EPOCH": 8512, "BSTAR": 0, "MEAN_MOTION_DOT": 1.4e-07, "MEAN_MOTION_DDOT": 0}, "tle": {"line1": "1 27513U 02041A   25342.86489855  .00000014  00000+0  00000+0 0  9997", "line2": "2 27513   5.3189  75.2776 0006097 189.6707 188.4156  1.00270855 85127"}}, "geometry": {"type": "Point", "coordinates": [-43.962975523695604, -4.658662668209981]}}, {"type": "Feature", "properties": {"norad_id": 27954, "name": "GALAXY 13 (HORIZONS-1)", "group": "intelsat", "lat": 0.26509962890981836, "lon": 101.93529988121354, "alt_km": 35793.618563768505, "timestamp": "2025-12-09T11:33:54.467965+00:00", "meta": {"OBJECT_NAME": "GALAXY 13 (HORIZONS-1)", "OBJECT_ID": "2003-044A", "EPOCH": "2025-12-09T03:14:38.559264", "MEAN_MOTION": 1.00269917, "ECCENTRICITY": 0.000202, "INCLINATION": 0.9261, "RA_OF_ASC_NODE": 86.5171, "ARG_OF_PERICENTER": 161.2931, "MEAN_ANOMALY": 88.9868, "EPHEMERIS_TYPE": 0, "CLASSIFICATION_TYPE": "U", "NORAD_CAT_ID": 27954, "ELEMENT_SET_NO": 999, "REV_AT_EPOCH": 4466, "BSTAR": 0, "MEAN_MOTION_DOT": 1.35e-06, "MEAN_MOTION_DDOT": 0}, "tle": {"line1": "1 27954U 03044A   25343.13516851  .00000135  00000+0  00000+0 0  9992", "line2": "2 27954   0.9261  86.5171 0002020 161.2931  88.9868  1.00269917 44664"}}, "geometry": {"type": "Point", "coordinates": [101.93529988121354, 0.26509962890981836]}}, {"type": "Feature", "properties": {"norad_id": 28358, "name": "INTELSAT 10-02", "group": "intelsat", "lat": -0.01717663066607432, "lon": -109.03896510643338, "alt_km": 35782.14739438349, "timestamp": "2025-12-09T11:33:54.467992+00:00", "meta": {"OBJECT_NAME": "INTELSAT 10-02", "OBJECT_ID": "2004-022A", "EPOCH": "2025-12-09T01:35:02.641056", "MEAN_MOTION": 1.00271862, "ECCENTRICITY": 0.0001305, "INCLINATION": 0.0316, "RA_OF_ASC_NODE": 71.7414, "ARG_OF_PERICENTER": 224.3866, "MEAN_ANOMALY": 164.7209, "EPHEMERIS_TYPE": 0, "CLASSIFICATION_TYPE": "U", "NORAD_CAT_ID": 28358, "ELEMENT_SET_NO": 999, "REV_AT_EPOCH": 7865, "BSTAR": 0, "MEAN_MOTION_DOT": -9e-08, "MEAN_MOTION_DDOT": 0}, "tle": {"line1": "1 28358U 04022A   25343.06600279 -.00000009  00000+0  00000+0 0  9999", "line2": "2 28358   0.0316  71.7414 0001305 224.3866 164.7209  1.00271862 78654"}}, "geometry": {"type": "Point", "coordinates": [-109.03896510643338, -0.01717663066607432]}}, {"type": "Feature", "properties": {"norad_id": 28626, "name": "XM-3 (RHYTHM)", "group": "intelsat", "lat": -0.1284797642673619, "lon": 21.74437565233716, "alt_km": 36155.09262800228, "timestamp": "2025-12-09T11:33:54.468013+00:00", "meta": {"OBJECT_NAME": "XM-3 (RHYTHM)", "OBJECT_ID": "2005-008A", "EPOCH": "2025-12-09T03:55:12.061056", "MEAN_MOTION": 0.98953843, "ECCENTRICITY": 0.0001359, "INCLINATION": 0.1655, "RA_OF_ASC_NODE": 81.1811, "ARG_OF_PERICENTER": 263.9518, "MEAN_ANOMALY": 283.1263, "EPHEMERIS_TYPE": 0, "CLASSIFICATION_TYPE": "U", "NORAD_CAT_ID": 28626, "ELEMENT_SET_NO": 999, "REV_AT_EPOCH": 4071, "BSTAR": 0, "MEAN_MOTION_DOT": -2.45e-06, "MEAN_MOTION_DDOT": 0}, "tle": {"line1": "1 28626U 05008A   25343.16333404 -.00000245  00000+0  00000+0 0  9998", "line2": "2 28626   0.1655  81.1811 0001359 263.9518 283.1263  0.98953843 40711"}}, "geometry": {"type": "Point", "coordinates": [21.74437565233716, -0.1284797642673619]}}]}